STARLINK-31657          
1 59487U 24071D   26068.08129746 -.00004398  00000+0 -15047-3 0  9991
2 59487  43.0031 343.0916 0001439 283.5557  76.5134 15.27566210108116
HERMES-2                
1 63243U 25052AK  26068.92847372  .00009456  00000+0  34839-3 0  9999
2 63243  97.4004 324.4926 0006340  99.4160 260.7796 15.28021069 54859
